GLOBALSTAR M001         
1 25162U 98008A   24309.31788322 -.00000022  00000+0  57057-3 0  9994
2 25162  52.0029 267.7192 0001592 116.6803  30.4238 12.38198804215969
GLOBALSTAR M004         
1 25163U 98008B   24309.96935922 -.00000022  00000+0  44903-3 0  9992
2 25163  52.0030  18.1774 0003439 148.3328  23.3427 12.63377516233342
GLOBALSTAR M003         
1 25165U 98008D   24309.63733312  .00000013  00000+0  10907-2 0  9992
2 25165  51.9964  70.4173 0008190 197.2018 176.1558 12.12049727205996
GLOBALSTAR M006         
1 25307U 98023B   24309.55051230 -.00000049  00000+0  54051-3 0  9999
2 25307  51.9959  55.4634 0004033  69.3280 303.0335 11.58169489190809
GLOBALSTAR M008         
1 25309U 98023D   24309.82608766 -.00000039  00000+0  44612-3 0  9994
2 25309  51.9941 128.5278 0003506  71.8804 300.9055 12.36054263210103
